#dP2023 12 12  6  0  0.00000000      96 __u+U IGS20 EXT  IAC
## 2292 194400.00000000   900.00000000 60290 0.2500000000000
+  119   C06C07C08C09C10C11C12C13C14C16C19C20C21C22C23C24C25
+        C26C27C28C29C30C32C33C34C35C36C37C38C39C40C41C42C43
+        C44C45C46E02E03E04E05E07E08E09E10E11E12E13E15E18E19
+        E21E24E25E26E27E30E31E33E34E36G01G02G03G04G05G06G07
+        G08G09G10G11G12G13G14G15G16G17G18G19G20G21G22G23G24
+        G25G26G27G28G29G30G31G32J02J03J04R01R02R03R04R05R07
+        R08R09R11R12R13R14R15R16R17R18R19R20R21R22R24R25R26
++         8 10  9  9 11  9 11  9  9  8  8  8  8  8  8  9  9
++         9  8  9  9  8  9 10  8  9  8 10 11  9  9  8  8  9
++        10 10  8  8  8  9  8  8  8  8  7  9  9  8  8  7  8
++         8  7  8  8  8  8  8  8  8  8  8  8  8  8  8  8  8
++         8  8  7  8  8  7  7  8  7  8  8  8  8  8  8 10  8
++         7  8  8  8  8  7  8  8 10 10  9  8  8  9  9  8  7
++         8  9  9  8  8  8  9  9  9  9  9  8  8  8  9 10 11
%c M  cc GPS ccc cccc cccc cccc cccc ccccc ccccc ccccc ccccc
%c cc cc ccc ccc cccc cccc cccc cccc ccccc ccccc ccccc ccccc
%f  0.0000000  0.000000000  0.00000000000  0.000000000000000
%f  0.0000000  0.000000000  0.00000000000  0.000000000000000
%i    0    0    0    0      0      0      0      0         0
%i    0    0    0    0      0      0      0      0         0
/* IAC                                ULTRA-RAPID PREDICTION
/* S/V CLOCKS ARE ALIGNED TO GNSS TIME                      
/* G:C1WC2W R:C1PC2P E:C1XC5X C:C2IC6I J:C1CC2S             
/* PCV:IGS20_2290 OL/AL:FES2004  NONE     YN ORB:CoN CLK:CoN
*  2023 12 12 23 45  0.00000000
PC06  -8850.898137  40470.669874   8646.485341    205.233937
PC07  -5182.724683  27510.274731 -31433.013494   -465.197590
PC08 -18537.659612  26839.225170  26602.571559    184.323567
PC09  -3232.927626  42303.393706  -1928.830322   -209.736951
PC10   3560.049505  29509.028202 -29398.574710    -51.218351
PC11 -15707.562961 -12755.000333 -19147.550433    303.361770
PC12  -8498.073167 -26314.180880  -3727.328607    827.919775
PC13 -11895.130166  27611.783052  29600.712679    394.914975
PC14 -26355.486131  -8998.180041  -2155.483798   -260.415116
PC16  -9992.674665  39732.555569  10913.592267   -223.113208
PC19  26846.856738   2672.122484  -7082.042539   -953.322263
PC20  22632.966200  13200.923057   9579.599591     34.336584
PC21  -4280.733936 -16687.677750 -21945.930684   -967.809961
PC22  15841.242260 -10020.279514 -20674.192343   -188.967360
PC23 -20409.384585  19009.385663    738.250844   -804.935954
PC24 -10880.953595 -12194.077605  22599.584657    686.712719
PC25 -22062.658996   6018.150119  15962.672418    276.748986
PC26   5533.487740 -22120.899513  16091.200888   -219.355152
PC27   3177.646330  27326.140881  -4732.539960    241.359500
PC28  -8413.961634  19400.063032 -18199.928860    182.584269
PC29  16724.295937   1674.534808  22275.636966    213.744260
PC30  14324.677564  21025.604660  11487.607325    -10.260753
PC32   4250.048625  16656.185302  21993.396009   -542.186109
PC33 -26899.306332  -2554.480461   6995.394670   -941.947158
PC34 -14898.538571 -19860.930272 -12727.368877    323.613573
PC35   7733.267147 -19720.681049  18140.934275    482.072898
PC36  21992.002363  -4782.626973 -16495.291130    -95.525552
PC37  -6551.404482  22110.246911 -15691.075807   -922.124527
PC38 -24106.766386  28532.508672  19443.350708    123.666700
PC39 -10391.950623  37923.960405  15541.610671     -6.068959
PC40  -9022.406945  21801.525615 -34913.515584    -47.614089
PC41 -16548.192840   9690.669767  20324.661156   -873.319845
PC42 -21671.650315 -13796.391253 -10882.067739   -482.095260
PC43 -16966.071160  -2680.028511 -21994.596917     52.066880
PC44  -4076.112488 -27156.710416   4864.887486    321.018007
PC45  20248.645044 -19224.043575   -276.791990    -54.400138
PC46  11751.043085  11204.354399 -22708.365431   -107.032749
PE02 -28847.911039    869.562372   6515.268853     86.129750
PE03 -22738.229985  -7550.247222  17376.452873    -79.713615
PE04  12458.002831 -11543.804251 -24241.854366   -278.713791
PE05 -19718.998011 -22066.617199    501.365700   4699.913637
PE07   4758.094162  23679.252639  17108.805848    -92.716081
PE08 -12808.904073  10925.056412  24340.251029   -191.263884
PE09  -4734.286454 -23572.731154 -17274.022818   -260.807475
PE10  11590.522614 -27016.179454   3499.187205   -585.896116
PE11   4953.502456 -28319.362114  -7029.755169   3262.628817
PE12  15904.215476 -21718.460794  12299.608670   -816.276904
PE13  -5427.521889  28400.068987   6356.277328    -19.674145
PE15 -15999.965524  21384.368310 -12752.995601    -74.389000
PE18 -25559.624885 -14489.745330 -13838.696345     87.824412
PE19  23007.401472   9924.763020 -15763.885786  -1027.461362
PE21  17820.194100  11186.435238 -20827.202197   -568.567216
PE24   4742.662232 -17399.465486  23461.050869   -482.586544
PE25 -17445.877723 -11394.096904  21021.575436     -2.055251
PE26   8705.162369  18172.948545  21692.104355    307.931149
PE27  -4099.264415  17346.516603 -23629.848023   -222.678745
PE30 -23596.682356  13033.428177 -12216.570941   -737.065175
PE31  23371.130624 -13218.257902  12475.817762    -11.611420
PE33  16920.426547  -1280.156799  24263.699836      4.086457
PE34 -17044.969802   1959.315177 -24115.405683    -83.026361
PE36  -8141.177564 -18707.220689 -21434.812298   -156.862762
PG01  13802.468924 -20411.798379   9114.651919    163.898849
PG02  15134.787627 -15374.224122  15854.502259   -516.379494
PG03  20774.536988 -11888.392478 -11535.547043     50.309600
PG04   9846.456160 -11745.269791 -21672.031246    237.900603
PG05 -25986.428688   5671.196622  -1031.391335   -153.891725
PG06  -9110.727855 -14298.757431 -20345.913047    479.770870
PG07   4105.785179 -25373.260958   6076.714827    -10.368533
PG08  16214.179139  -3992.638183  20658.958432   -156.677516
PG09  -1259.128621 -19817.259475 -17698.970423     24.965378
PG10  11725.162416  11919.748061  20913.428538    -65.068195
PG11 -14971.114856  -2969.132889 -21708.924074   -498.365886
PG12 -21850.835356  10487.186622 -11058.432854   -456.802406
PG13 -18843.881151  -7470.866059  17072.090474    605.022624
PG14  -7574.667796 -14174.900151  21191.889827    269.188558
PG15 -15950.818771   5829.980379  19979.999395    106.340726
PG16  26053.669454   1663.394275  -6396.326673   -405.273090
PG17 -11639.496994 -22876.965273   6967.352589    722.089140
PG18  -3937.421520  25171.603943   7174.540445   -504.645417
PG19 -16870.228327 -20588.764803  -2864.590955    411.652885
PG20 -22857.805695  -1321.142851 -13253.845076    396.957527
PG21  15836.131620 -11133.687356  18249.874021    141.714948
PG22 -14503.150223 -11876.475656  19143.595849     67.142889
PG23  -2443.249114  15416.467875  21478.084003    115.025815
PG24 -14883.454559  15888.501003  14520.251082   -392.040545
PG25 -10756.601707  15847.183098 -18614.953577    481.241993
PG26  21765.923284   5294.143552 -14685.996524    209.718778
PG27  20897.288726   9675.418797  13335.866673    -82.197806
PG28   8655.154438  16676.886808 -18797.309471    -68.567709
PG29   -996.545908  19315.414104 -18203.057679   -609.804270
PG30  -3750.432077 -21881.106281  14504.843348   -458.117453
PG31  13419.653865   8009.470940 -21648.801808   -226.538832
PG32  15729.014045  21291.152358   3471.788739   -595.693459
PJ02 -34326.216234  16353.474788 -13581.122627     -0.531644
PJ03 -20490.720090  31968.730833 -13779.568227    -11.724487
PJ04 -27174.101744  26882.927837  23792.168244     74.081011
PR01  10297.368592  14387.949598  18370.787481     72.002635
PR02  21938.036730  12736.696395   3069.900227    -22.336937
PR03  21212.841486   3274.512644 -13792.288833     90.806457
PR04   8750.348260  -7398.161215 -22765.654663    215.158732
PR05  -8268.269297 -14308.862555 -19410.452076    123.718026
PR07 -20734.174412  -2633.714989  14618.236772     71.203337
PR08  -8492.883371   7749.994649  22822.012076    -73.657372
PR09 -13531.399835  -3390.732486  21388.011678    158.398535
PR11 -18591.123839  16326.800385  -6226.596192   -220.759276
PR12  -3296.683462  14285.565122 -20849.397296     34.394761
PR13  11469.650122   5060.703431 -22234.412368    -42.251515
PR14  21712.776390  -9120.295706  -9774.105928     25.746927
PR15  17912.517604 -16484.869752   7630.164801     84.007927
PR16   3554.631288 -14315.921626  20805.792741     21.481409
PR17  10352.120727  -3496.400462  23067.473209     42.991774
PR18   6099.861505 -19311.815023  15499.714771    116.576709
PR19    237.285470 -25466.458465   1500.632176   -258.079792
PR20  -8144.917806 -16394.311541 -17728.567102   -105.052427
PR21 -10229.023311   3973.510774 -23016.386842    -60.527007
PR22  -6510.966103  19932.957023 -14501.258732     97.987924
PR24   9324.942641  15526.274089  17978.842281    -35.701050
PR25  -9169.510625   7354.134477  22658.019131    -12.519865
PR26 -10788.275336   3054.395242 -22899.568105      0.468036
EOF
